{
    "links": {
        "self": "http://www.neowsapp.com/rest/v1/neo/54041667?api_key=iIulBulltgU6a56xZRHN4H3l9WmuAYTsLGpBGhQ2"
    },
    "id": "54041667",
    "neo_reference_id": "54041667",
    "name": "(2020 NA1)",
    "designation": "2020 NA1",
    "nasa_jpl_url": "http://ssd.jpl.nasa.gov/sbdb.cgi?sstr=54041667",
    "absolute_magnitude_h": 23.499,
    "estimated_diameter": {
        "kilometers": {
            "estimated_diameter_min": 0.053058501,
            "estimated_diameter_max": 0.1186424151
        },
        "meters": {
            "estimated_diameter_min": 53.0585010492,
            "estimated_diameter_max": 118.6424151303
        },
        "miles": {
            "estimated_diameter_min": 0.0329690139,
            "estimated_diameter_max": 0.0737209561
        },
        "feet": {
            "estimated_diameter_min": 174.0764525824,
            "estimated_diameter_max": 389.2467812562
        }
    },
    "is_potentially_hazardous_asteroid": false,
    "close_approach_data": [
        {
            "close_approach_date": "2020-07-08",
            "close_approach_date_full": "2020-Jul-08 06:03",
            "epoch_date_close_approach": 1594188180000,
            "relative_velocity": {
                "kilometers_per_second": "20.3377028595",
                "kilometers_per_hour": "73215.7302941539",
                "miles_per_hour": "45493.4075263869"
            },
            "miss_distance": {
                "astronomical": "0.0363225142",
                "lunar": "14.1294580238",
                "kilometers": "5433770.757364754",
                "miles": "3376388.5834074452"
            },
            "orbiting_body": "Earth"
        },
        {
            "close_approach_date": "2022-04-13",
            "close_approach_date_full": "2022-Apr-13 08:59",
            "epoch_date_close_approach": 1649840340000,
            "relative_velocity": {
                "kilometers_per_second": "20.3372661524",
                "kilometers_per_hour": "73214.1581486922",
                "miles_per_hour": "45492.430656336"
            },
            "miss_distance": {
                "astronomical": "0.1141180979",
                "lunar": "44.3919400831",
                "kilometers": "17071824.374291473",
                "miles": "10607939.7694814074"
            },
            "orbiting_body": "Venus"
        }
    ],
    "orbital_data": {
        "orbit_id": "4",
        "orbit_determination_date": "2020-08-31 09:29:35",
        "first_observation_date": "2020-07-12",
        "last_observation_date": "2020-07-19",
        "data_arc_in_days": 7,
        "observations_used": 22,
        "orbit_uncertainty": "8",
        "minimum_orbit_intersection": ".0256263",
        "jupiter_tisserand_invariant": "4.315",
        "epoch_osculation": "2459043.5",
        "eccentricity": ".5763766518310913",
        "semi_major_axis": "1.491654839698268",
        "inclination": "19.1888253017449",
        "ascending_node_longitude": "280.943699916861",
        "orbital_period": "665.4277976365522",
        "perihelion_distance": ".631899817505337",
        "perihelion_argument": "273.9288486478353",
        "aphelion_distance": "2.351409861891199",
        "perihelion_time": "2458986.864206281406",
        "mean_anomaly": "30.64026752580898",
        "mean_motion": ".541005352163883",
        "equinox": "J2000",
        "orbit_class": {
            "orbit_class_type": "APO",
            "orbit_class_description": "Near-Earth asteroid orbits which cross the Earth’s orbit similar to that of 1862 Apollo",
            "orbit_class_range": "a (semi-major axis) > 1.0 AU; q (perihelion) < 1.017 AU"
        }
    },
    "is_sentry_object": false
}